{
    "week": 295,
    "satellites": [
        {
            "Name": "BEIDOU-3 M24 (C46)",
            "Line1": "1 44542U 19061A   24337.05063598  .00000092  00000+0  00000+0 0  9990",
            "Line2": "2 44542  54.4241 201.6913 0009081  15.0225 345.1118  1.86229415 35320",
            "SatelliteNumber": "44542",
            "Classification": "U",
            "LaunchYear": "19",
            "LaunchNumber": "061",
            "PieceOfLaunch": "A",
            "EpochYear": "24",
            "EpochDay": 337.05063598,
            "FirstDerivativeMeanMotion": 9.2e-07,
            "SecondDerivativeMeanMotion": "00000+0",
            "BSTAR": "00000+0",
            "SetNumber": "999",
            "Inclination": 54.4241,
            "RAAN": 201.6913,
            "Eccentricity": 0.0009081,
            "ArgumentOfPerigee": 15.0225,
            "MeanAnomaly": 345.1118,
            "MeanMotion": 1.86229415,
            "RevolutionNumber": "3532"
        },
        {
            "Name": "BEIDOU-3 M23 (C45)",
            "Line1": "1 44543U 19061B   24337.34388941  .00000091  00000+0  00000+0 0  9994",
            "Line2": "2 44543  54.4226 201.6503 0005747  12.4653  96.8853  1.86229654 35332",
            "SatelliteNumber": "44543",
            "Classification": "U",
            "LaunchYear": "19",
            "LaunchNumber": "061",
            "PieceOfLaunch": "B",
            "EpochYear": "24",
            "EpochDay": 337.34388941,
            "FirstDerivativeMeanMotion": 9.1e-07,
            "SecondDerivativeMeanMotion": "00000+0",
            "BSTAR": "00000+0",
            "SetNumber": "999",
            "Inclination": 54.4226,
            "RAAN": 201.6503,
            "Eccentricity": 0.0005747,
            "ArgumentOfPerigee": 12.4653,
            "MeanAnomaly": 96.8853,
            "MeanMotion": 1.86229654,
            "RevolutionNumber": "3533"
        },
        {
            "Name": "BEIDOU-3 IGSO-3 (C40)",
            "Line1": "1 44709U 19073A   24337.27526337 -.00000194  00000+0  00000+0 0  9991",
            "Line2": "2 44709  55.7670 286.9417 0040137 190.3022 169.5721  1.00250892 18800",
            "SatelliteNumber": "44709",
            "Classification": "U",
            "LaunchYear": "19",
            "LaunchNumber": "073",
            "PieceOfLaunch": "A",
            "EpochYear": "24",
            "EpochDay": 337.27526337,
            "FirstDerivativeMeanMotion": -1.94e-06,
            "SecondDerivativeMeanMotion": "00000+0",
            "BSTAR": "00000+0",
            "SetNumber": "999",
            "Inclination": 55.767,
            "RAAN": 286.9417,
            "Eccentricity": 0.0040137,
            "ArgumentOfPerigee": 190.3022,
            "MeanAnomaly": 169.5721,
            "MeanMotion": 1.00250892,
            "RevolutionNumber": "1880"
        },
        {
            "Name": "BEIDOU-3 M22 (C44)",
            "Line1": "1 44793U 19078A   24337.43175681 -.00000057  00000+0  00000+0 0  9997",
            "Line2": "2 44793  54.4327 319.5111 0005591  11.3158 348.6938  1.86232040 34198",
            "SatelliteNumber": "44793",
            "Classification": "U",
            "LaunchYear": "19",
            "LaunchNumber": "078",
            "PieceOfLaunch": "A",
            "EpochYear": "24",
            "EpochDay": 337.43175681,
            "FirstDerivativeMeanMotion": -5.7e-07,
            "SecondDerivativeMeanMotion": "00000+0",
            "BSTAR": "00000+0",
            "SetNumber": "999",
            "Inclination": 54.4327,
            "RAAN": 319.5111,
            "Eccentricity": 0.0005591,
            "ArgumentOfPerigee": 11.3158,
            "MeanAnomaly": 348.6938,
            "MeanMotion": 1.8623204,
            "RevolutionNumber": "3419"
        },
        {
            "Name": "BEIDOU-3 M21 (C43)",
            "Line1": "1 44794U 19078B   24337.02415872 -.00000059  00000+0  00000+0 0  9994",
            "Line2": "2 44794  54.4066 319.4977 0003790 355.7400   4.2538  1.86232580 34181",
            "SatelliteNumber": "44794",
            "Classification": "U",
            "LaunchYear": "19",
            "LaunchNumber": "078",
            "PieceOfLaunch": "B",
            "EpochYear": "24",
            "EpochDay": 337.02415872,
            "FirstDerivativeMeanMotion": -5.9e-07,
            "SecondDerivativeMeanMotion": "00000+0",
            "BSTAR": "00000+0",
            "SetNumber": "999",
            "Inclination": 54.4066,
            "RAAN": 319.4977,
            "Eccentricity": 0.000379,
            "ArgumentOfPerigee": 355.74,
            "MeanAnomaly": 4.2538,
            "MeanMotion": 1.8623258,
            "RevolutionNumber": "3418"
        },
        {
            "Name": "BEIDOU-3 M19 (C41)",
            "Line1": "1 44864U 19090A   24337.33003873 -.00000018  00000+0  00000+0 0  9999",
            "Line2": "2 44864  56.0671  81.4412 0017098 278.4363 118.6664  1.86231523 33774",
            "SatelliteNumber": "44864",
            "Classification": "U",
            "LaunchYear": "19",
            "LaunchNumber": "090",
            "PieceOfLaunch": "A",
            "EpochYear": "24",
            "EpochDay": 337.33003873,
            "FirstDerivativeMeanMotion": -1.8e-07,
            "SecondDerivativeMeanMotion": "00000+0",
            "BSTAR": "00000+0",
            "SetNumber": "999",
            "Inclination": 56.0671,
            "RAAN": 81.4412,
            "Eccentricity": 0.0017098,
            "ArgumentOfPerigee": 278.4363,
            "MeanAnomaly": 118.6664,
            "MeanMotion": 1.86231523,
            "RevolutionNumber": "3377"
        },
        {
            "Name": "BEIDOU-3 M20 (C42)",
            "Line1": "1 44865U 19090B   24336.68919933 -.00000023  00000+0  00000+0 0  9996",
            "Line2": "2 44865  56.0683  81.4961 0014359 291.4868 125.6587  1.86231515 33749",
            "SatelliteNumber": "44865",
            "Classification": "U",
            "LaunchYear": "19",
            "LaunchNumber": "090",
            "PieceOfLaunch": "B",
            "EpochYear": "24",
            "EpochDay": 336.68919933,
            "FirstDerivativeMeanMotion": -2.3e-07,
            "SecondDerivativeMeanMotion": "00000+0",
            "BSTAR": "00000+0",
            "SetNumber": "999",
            "Inclination": 56.0683,
            "RAAN": 81.4961,
            "Eccentricity": 0.0014359,
            "ArgumentOfPerigee": 291.4868,
            "MeanAnomaly": 125.6587,
            "MeanMotion": 1.86231515,
            "RevolutionNumber": "3374"
        },
        {
            "Name": "BEIDOU-3 G2 (C60)",
            "Line1": "1 45344U 20017A   24337.53319514 -.00000117  00000+0  00000+0 0  9998",
            "Line2": "2 45344   2.5493  35.4140 0004094 219.6588  88.7854  1.00272725 17620",
            "SatelliteNumber": "45344",
            "Classification": "U",
            "LaunchYear": "20",
            "LaunchNumber": "017",
            "PieceOfLaunch": "A",
            "EpochYear": "24",
            "EpochDay": 337.53319514,
            "FirstDerivativeMeanMotion": -1.17e-06,
            "SecondDerivativeMeanMotion": "00000+0",
            "BSTAR": "00000+0",
            "SetNumber": "999",
            "Inclination": 2.5493,
            "RAAN": 35.414,
            "Eccentricity": 0.0004094,
            "ArgumentOfPerigee": 219.6588,
            "MeanAnomaly": 88.7854,
            "MeanMotion": 1.00272725,
            "RevolutionNumber": "1762"
        },
        {
            "Name": "BEIDOU-3 G3 (C61)",
            "Line1": "1 45807U 20040A   24337.59660153 -.00000328  00000+0  00000+0 0  9996",
            "Line2": "2 45807   1.1101  56.8470 0003577 302.7313  37.7209  1.00270132 16439",
            "SatelliteNumber": "45807",
            "Classification": "U",
            "LaunchYear": "20",
            "LaunchNumber": "040",
            "PieceOfLaunch": "A",
            "EpochYear": "24",
            "EpochDay": 337.59660153,
            "FirstDerivativeMeanMotion": -3.28e-06,
            "SecondDerivativeMeanMotion": "00000+0",
            "BSTAR": "00000+0",
            "SetNumber": "999",
            "Inclination": 1.1101,
            "RAAN": 56.847,
            "Eccentricity": 0.0003577,
            "ArgumentOfPerigee": 302.7313,
            "MeanAnomaly": 37.7209,
            "MeanMotion": 1.00270132,
            "RevolutionNumber": "1643"
        },
        {
            "Name": "BEIDOU-3 G4 (C62)",
            "Line1": "1 56564U 23066A   24337.82549333 -.00000084  00000+0  00000+0 0  9990",
            "Line2": "2 56564   1.7058 289.0903 0004276 256.9582 343.3465  1.00271179  5771",
            "SatelliteNumber": "56564",
            "Classification": "U",
            "LaunchYear": "23",
            "LaunchNumber": "066",
            "PieceOfLaunch": "A",
            "EpochYear": "24",
            "EpochDay": 337.82549333,
            "FirstDerivativeMeanMotion": -8.4e-07,
            "SecondDerivativeMeanMotion": "00000+0",
            "BSTAR": "00000+0",
            "SetNumber": "999",
            "Inclination": 1.7058,
            "RAAN": 289.0903,
            "Eccentricity": 0.0004276,
            "ArgumentOfPerigee": 256.9582,
            "MeanAnomaly": 343.3465,
            "MeanMotion": 1.00271179,
            "RevolutionNumber": "577"
        }
    ]
}